IRIDIUM 166             
1 43570U 18061B   25272.70961016  .00000353  00000+0  11901-3 0  9998
2 43570  86.4034 165.6184 0002187  78.5500 281.5941 14.34217014376069
IRIDIUM 158             
1 43571U 18061C   25272.74766678  .00000422  00000+0  14352-3 0  9990
2 43571  86.4040 165.6127 0002155  83.7850 276.3592 14.34217968376034
IRIDIUM 165             
1 43572U 18061D   25272.77303280  .00000486  00000+0  16647-3 0  9999
2 43572  86.4036 165.6436 0002178  79.3325 280.8116 14.34214907376061
IRIDIUM 155             
1 43573U 18061E   25272.73498301  .00000070  00000+0  17831-4 0  9991
2 43573  86.4032 165.5415 0002333  83.2504 276.8958 14.34217651376024
IRIDIUM 154             
1 43574U 18061F   25272.71595025  .00000440  00000+0  15000-3 0  9997
2 43574  86.4037 165.6698 0002083  82.0485 278.0947 14.34220243376079
IRIDIUM 163             
1 43575U 18061G   25272.76669552  .00000127  00000+0  38430-4 0  9995
2 43575  86.4032 165.5723 0002179  89.3067 270.8378 14.34218053376057
IRIDIUM 156             
1 43576U 18061H   25272.74131369  .00000452  00000+0  15429-3 0  9997
2 43576  86.4036 165.5890 0002517  80.2687 279.8793 14.34215711376048
IRIDIUM 164             
1 43577U 18061J   25272.79206556 -.00000038  00000+0 -20601-4 0  9995
2 43577  86.4035 165.6047 0001935  78.0972 282.0441 14.34216744376096
